CCSDS_OMM_VERS = 2.0
CREATION_DATE  = 
ORIGINATOR     = 

OBJECT_NAME    = GUOWANG GROUP 20 OBJECT C
OBJECT_ID      = 2026-047C
CENTER_NAME    = EARTH
REF_FRAME      = TEME
TIME_SYSTEM    = UTC
MEAN_ELEMENT_THEORY = SGP/SGP4

EPOCH          = 2026-04-02T12:08:18.567744
MEAN_MOTION    = 13.86320500
ECCENTRICITY   = .00006698
INCLINATION    = 50.0019
RA_OF_ASC_NODE = 334.0677
ARG_OF_PERICENTER = 236.5521
MEAN_ANOMALY   = 123.5312

EPHEMERIS_TYPE = 0
CLASSIFICATION_TYPE = U
NORAD_CAT_ID   = 68131
ELEMENT_SET_NO = 999
REV_AT_EPOCH   = 290
BSTAR          = .42135642E-4
MEAN_MOTION_DOT = -.96E-6
MEAN_MOTION_DDOT = 0

CCSDS_OMM_VERS = 2.0
CREATION_DATE  = 
ORIGINATOR     = 

OBJECT_NAME    = GUOWANG GROUP 20 OBJECT D
OBJECT_ID      = 2026-047D
CENTER_NAME    = EARTH
REF_FRAME      = TEME
TIME_SYSTEM    = UTC
MEAN_ELEMENT_THEORY = SGP/SGP4

EPOCH          = 2026-04-02T13:48:14.018400
MEAN_MOTION    = 13.86594040
ECCENTRICITY   = .00007103
INCLINATION    = 50.0067
RA_OF_ASC_NODE = 333.7806
ARG_OF_PERICENTER = 245.0360
MEAN_ANOMALY   = 115.0463

EPHEMERIS_TYPE = 0
CLASSIFICATION_TYPE = U
NORAD_CAT_ID   = 68132
ELEMENT_SET_NO = 999
REV_AT_EPOCH   = 290
BSTAR          = .51916391E-4
MEAN_MOTION_DOT = -.84E-6
MEAN_MOTION_DDOT = 0

CCSDS_OMM_VERS = 2.0
CREATION_DATE  = 
ORIGINATOR     = 

OBJECT_NAME    = GUOWANG GROUP 20 OBJECT E
OBJECT_ID      = 2026-047E
CENTER_NAME    = EARTH
REF_FRAME      = TEME
TIME_SYSTEM    = UTC
MEAN_ELEMENT_THEORY = SGP/SGP4

EPOCH          = 2026-04-02T17:11:29.001696
MEAN_MOTION    = 13.86278934
ECCENTRICITY   = .00006404
INCLINATION    = 50.0032
RA_OF_ASC_NODE = 333.1791
ARG_OF_PERICENTER = 212.5320
MEAN_ANOMALY   = 147.5538

EPHEMERIS_TYPE = 0
CLASSIFICATION_TYPE = U
NORAD_CAT_ID   = 68133
ELEMENT_SET_NO = 999
REV_AT_EPOCH   = 293
BSTAR          = .35303012E-4
MEAN_MOTION_DOT = -.104E-5
MEAN_MOTION_DDOT = 0

CCSDS_OMM_VERS = 2.0
CREATION_DATE  = 
ORIGINATOR     = 

OBJECT_NAME    = GUOWANG GROUP 20 OBJECT F
OBJECT_ID      = 2026-047F
CENTER_NAME    = EARTH
REF_FRAME      = TEME
TIME_SYSTEM    = UTC
MEAN_ELEMENT_THEORY = SGP/SGP4

EPOCH          = 2026-04-02T13:36:24.060096
MEAN_MOTION    = 13.87190720
ECCENTRICITY   = .0000629
INCLINATION    = 50.0093
RA_OF_ASC_NODE = 333.7419
ARG_OF_PERICENTER = 256.4099
MEAN_ANOMALY   = 103.6728

EPHEMERIS_TYPE = 0
CLASSIFICATION_TYPE = U
NORAD_CAT_ID   = 68134
ELEMENT_SET_NO = 999
REV_AT_EPOCH   = 290
BSTAR          = .95092278E-4
MEAN_MOTION_DOT = -.33E-6
MEAN_MOTION_DDOT = 0

CCSDS_OMM_VERS = 2.0
CREATION_DATE  = 
ORIGINATOR     = 

OBJECT_NAME    = GUOWANG GROUP 20 OBJECT G
OBJECT_ID      = 2026-047G
CENTER_NAME    = EARTH
REF_FRAME      = TEME
TIME_SYSTEM    = UTC
MEAN_ELEMENT_THEORY = SGP/SGP4

EPOCH          = 2026-04-02T13:40:04.450944
MEAN_MOTION    = 13.87026021
ECCENTRICITY   = .00009279
INCLINATION    = 50.0112
RA_OF_ASC_NODE = 333.7611
ARG_OF_PERICENTER = 224.2337
MEAN_ANOMALY   = 135.8486

EPHEMERIS_TYPE = 0
CLASSIFICATION_TYPE = U
NORAD_CAT_ID   = 68135
ELEMENT_SET_NO = 999
REV_AT_EPOCH   = 291
BSTAR          = .13110379E-3
MEAN_MOTION_DOT = .9E-7
MEAN_MOTION_DDOT = 0

CCSDS_OMM_VERS = 2.0
CREATION_DATE  = 
ORIGINATOR     = 

OBJECT_NAME    = GUOWANG GROUP 20 OBJECT H
OBJECT_ID      = 2026-047H
CENTER_NAME    = EARTH
REF_FRAME      = TEME
TIME_SYSTEM    = UTC
MEAN_ELEMENT_THEORY = SGP/SGP4

EPOCH          = 2026-04-02T11:48:51.915456
MEAN_MOTION    = 13.87381469
ECCENTRICITY   = .00009093
INCLINATION    = 50.0086
RA_OF_ASC_NODE = 334.0113
ARG_OF_PERICENTER = 305.9014
MEAN_ANOMALY   = 54.1799

EPHEMERIS_TYPE = 0
CLASSIFICATION_TYPE = U
NORAD_CAT_ID   = 68136
ELEMENT_SET_NO = 999
REV_AT_EPOCH   = 289
BSTAR          = .48250788E-4
MEAN_MOTION_DOT = -.88E-6
MEAN_MOTION_DDOT = 0

CCSDS_OMM_VERS = 2.0
CREATION_DATE  = 
ORIGINATOR     = 

OBJECT_NAME    = GUOWANG GROUP 20 OBJECT J
OBJECT_ID      = 2026-047J
CENTER_NAME    = EARTH
REF_FRAME      = TEME
TIME_SYSTEM    = UTC
MEAN_ELEMENT_THEORY = SGP/SGP4

EPOCH          = 2026-04-02T16:56:00.731328
MEAN_MOTION    = 13.87066479
ECCENTRICITY   = .00006698
INCLINATION    = 50.0058
RA_OF_ASC_NODE = 333.1317
ARG_OF_PERICENTER = 182.6269
MEAN_ANOMALY   = 177.4625

EPHEMERIS_TYPE = 0
CLASSIFICATION_TYPE = U
NORAD_CAT_ID   = 68137
ELEMENT_SET_NO = 999
REV_AT_EPOCH   = 293
BSTAR          = .24623265E-4
MEAN_MOTION_DOT = -.116E-5
MEAN_MOTION_DDOT = 0

CCSDS_OMM_VERS = 2.0
CREATION_DATE  = 
ORIGINATOR     = 

OBJECT_NAME    = CZ-8A R/B
OBJECT_ID      = 2026-047K
CENTER_NAME    = EARTH
REF_FRAME      = TEME
TIME_SYSTEM    = UTC
MEAN_ELEMENT_THEORY = SGP/SGP4

EPOCH          = 2026-04-03T07:28:54.487200
MEAN_MOTION    = 14.12232889
ECCENTRICITY   = .00447588
INCLINATION    = 49.9534
RA_OF_ASC_NODE = 328.8619
ARG_OF_PERICENTER = 222.8160
MEAN_ANOMALY   = 136.9258

EPHEMERIS_TYPE = 0
CLASSIFICATION_TYPE = U
NORAD_CAT_ID   = 68138
ELEMENT_SET_NO = 999
REV_AT_EPOCH   = 303
BSTAR          = .88056133E-4
MEAN_MOTION_DOT = .1E-6
MEAN_MOTION_DDOT = 0

CCSDS_OMM_VERS = 2.0
CREATION_DATE  = 
ORIGINATOR     = 

OBJECT_NAME    = SHIYAN-30 03
OBJECT_ID      = 2026-048A
CENTER_NAME    = EARTH
REF_FRAME      = TEME
TIME_SYSTEM    = UTC
MEAN_ELEMENT_THEORY = SGP/SGP4

EPOCH          = 2026-04-03T04:50:02.503104
MEAN_MOTION    = 14.91766167
ECCENTRICITY   = .00025505
INCLINATION    = 35.0016
RA_OF_ASC_NODE = 357.1715
ARG_OF_PERICENTER = 51.0047
MEAN_ANOMALY   = 309.0885

EPHEMERIS_TYPE = 0
CLASSIFICATION_TYPE = U
NORAD_CAT_ID   = 68139
ELEMENT_SET_NO = 999
REV_AT_EPOCH   = 316
BSTAR          = .45421785E-3
MEAN_MOTION_DOT = .4639E-4
MEAN_MOTION_DDOT = 0

CCSDS_OMM_VERS = 2.0
CREATION_DATE  = 
ORIGINATOR     = 

OBJECT_NAME    = SHIYAN-30 04
OBJECT_ID      = 2026-048B
CENTER_NAME    = EARTH
REF_FRAME      = TEME
TIME_SYSTEM    = UTC
MEAN_ELEMENT_THEORY = SGP/SGP4

EPOCH          = 2026-04-03T04:51:02.451744
MEAN_MOTION    = 14.91764267
ECCENTRICITY   = .00010162
INCLINATION    = 34.9930
RA_OF_ASC_NODE = 357.1698
ARG_OF_PERICENTER = 52.8418
MEAN_ANOMALY   = 307.2379

EPHEMERIS_TYPE = 0
CLASSIFICATION_TYPE = U
NORAD_CAT_ID   = 68140
ELEMENT_SET_NO = 999
REV_AT_EPOCH   = 316
BSTAR          = .43711166E-3
MEAN_MOTION_DOT = .4463E-4
MEAN_MOTION_DDOT = 0

CCSDS_OMM_VERS = 2.0
CREATION_DATE  = 
ORIGINATOR     = 

OBJECT_NAME    = CZ-2D R/B
OBJECT_ID      = 2026-048C
CENTER_NAME    = EARTH
REF_FRAME      = TEME
TIME_SYSTEM    = UTC
MEAN_ELEMENT_THEORY = SGP/SGP4

EPOCH          = 2026-04-03T03:35:59.290656
MEAN_MOTION    = 14.95588633
ECCENTRICITY   = .0015666
INCLINATION    = 35.1310
RA_OF_ASC_NODE = 357.1254
ARG_OF_PERICENTER = 181.4408
MEAN_ANOMALY   = 178.6257

EPHEMERIS_TYPE = 0
CLASSIFICATION_TYPE = U
NORAD_CAT_ID   = 68141
ELEMENT_SET_NO = 999
REV_AT_EPOCH   = 316
BSTAR          = .24659347E-3
MEAN_MOTION_DOT = .2766E-4
MEAN_MOTION_DDOT = 0

CCSDS_OMM_VERS = 2.0
CREATION_DATE  = 
ORIGINATOR     = 

OBJECT_NAME    = STARLINK-36604
OBJECT_ID      = 2026-049A
CENTER_NAME    = EARTH
REF_FRAME      = TEME
TIME_SYSTEM    = UTC
MEAN_ELEMENT_THEORY = SGP/SGP4

EPOCH          = 2026-04-03T06:00:00.999648
MEAN_MOTION    = 15.75096237
ECCENTRICITY   = .00016036
INCLINATION    = 97.2848
RA_OF_ASC_NODE = 113.7226
ARG_OF_PERICENTER = 88.3835
MEAN_ANOMALY   = 339.3335

EPHEMERIS_TYPE = 0
CLASSIFICATION_TYPE = U
NORAD_CAT_ID   = 68142
ELEMENT_SET_NO = 999
REV_AT_EPOCH   = 457
BSTAR          = .15259282E-3
MEAN_MOTION_DOT = .22599E-3
MEAN_MOTION_DDOT = 0

